{
  "type": "FeatureCollection",
  "features": [
    {
      "type": "Feature",
      "properties": {
        "OBJECT_NAME": "DMC3-FM3",
        "OBJECT_ID": "2015-032C",
        "EPOCH": "2025-11-30T03:35:36.267648",
        "MEAN_MOTION": 14.85401358,
        "ECCENTRICITY": 0.0005604,
        "INCLINATION": 97.6813,
        "RA_OF_ASC_NODE": 204.8597,
        "ARG_OF_PERICENTER": 11.0249,
        "MEAN_ANOMALY": 349.1088,
        "EPHEMERIS_TYPE": 0,
        "CLASSIFICATION_TYPE": "U",
        "NORAD_CAT_ID": 40717,
        "ELEMENT_SET_NO": 999,
        "REV_AT_EPOCH": 56036,
        "BSTAR": 9.8672e-05,
        "MEAN_MOTION_DOT": 7.98e-06,
        "MEAN_MOTION_DDOT": 0,
        "norad_id": 40717,
        "name": "DMC3-FM3",
        "group": "dmc",
        "longitude_deg": NaN,
        "latitude_deg": NaN,
        "alt_km": NaN,
        "orbit_class": "HEO",
        "timestamp": "2025-11-30T09:33:02.505397+00:00"
      },
      "geometry": {
        "type": "Point",
        "coordinates": [
          NaN,
          NaN
        ]
      }
    }
  ]
}