DMC3-FM3                
1 40717U 15032C   25334.14972532  .00000798  00000+0  98672-4 0  9999
2 40717  97.6813 204.8597 0005604  11.0249 349.1088 14.85401358560364
